#dP2026  4 23  0  0  0.00000000     289 d     IGc20 FIT AIUB
## 2415 345600.00000000   300.00000000 61153 0.0000000000000
+   83   G01G02G03G04G05G06G07G08G09G10G11G12G13G14G15G16G17
+        G18G19G20G21G22G23G24G25G26G27G28G29G30G31G32R02R03
+        R04R05R06R07R08R09R11R12R14R15R16R17R18R19R20R21R22
+        R24R26E02E03E04E05E06E07E08E09E10E11E12E13E14E15E16
+        E18E19E21E23E25E26E27E28E29E30E31E32E33E34E36  0  0
++         5  5  6  5  6  5  5  5  5  6  5  6  5  6  5  6  5
++         5  5  5  6  6  6  5  6  6  5  5  5  5  5  5  5  5
++         5  5  8  5  5  5  5  5  5  5  5  5  5  5  5  5  5
++         5  6  6  5  5  5  5  5  5  5  5  5  5  5  5  5  6
++         5  5  6  6  6  5  6  5  5  6  6  5  5  5  5  0  0
%c M  cc GPS ccc cccc cccc cccc cccc ccccc ccccc ccccc ccccc
%c cc cc ccc ccc cccc cccc cccc cccc ccccc ccccc ccccc ccccc
%f  1.2500000  1.025000000  0.00000000000  0.000000000000000
%f  0.0000000  0.000000000  0.00000000000  0.000000000000000
%i    0    0    0    0      0      0      0      0         0
%i    0    0    0    0      0      0      0      0         0
/* Center for Orbit Determination in Europe (CODE)                              
/* Rapid GNSS orbits and clocks for year-day 2026-113                           
/* Last day of a 3-day long-arc GRE solution                                    
/* Product reference - DOI 10.48350/197026                                      
/* PCV:IGS20_2408 OL/AL:FES2014b NONE     YN ORB:CoN CLK:BRD                    
*  2026  4 23 10 35  0.00000000
PG01  10628.491291 -19447.581301 -14586.137910    291.414814
PG02  17343.558020 -19352.509136  -3306.359048     84.537483
PG03   1131.135009 -15083.251546 -22044.987984    492.489833
PG04   1176.644588 -25846.243893  -5553.360669     54.425404
PG05 -16420.508215   7833.267851  19191.740827   -232.104701
PG06 -19855.135928    160.438901 -17657.864476   -608.937458
PG07  -5164.220034 -15472.733282  21526.113091   -176.506115
PG08   7945.821324 -19433.564896  15782.814384    456.472731
PG09  -7183.436913 -25163.863672   4211.512688    757.267521
PG10  24093.876773  11483.321418   1950.409144   -588.466342
PG11 -23218.799440  11033.387190  -6466.786361   -363.642619
PG12  -4933.532655  14660.986525 -21879.693201   -607.928954
PG13 -12991.018809  12636.785261  19045.793242    678.321730
PG14 -22822.138263 -13181.200504   4534.579973    744.209457
PG15  -4681.190540  20984.890957  15016.770870    405.556927
PG16  20910.230864  -2053.892485  16108.430100    250.242079
PG17 -12711.300123 -16370.463693 -16087.837698   -119.417197
PG18   6686.686288  13626.460566  21824.844057   -369.770433
PG19 -15048.694403  -6750.500056 -20987.863900    697.895944
PG20 -11128.861224  14810.589726  19108.567422    121.898976
PG21 -22614.089441    858.387828  13944.142591    414.866046
PG22 -23860.401113 -11130.423795  -1409.935374    -14.050306
PG23  16735.652349  15883.519590  13472.504403    639.450268
PG24 -12832.336559  21538.806507  -8729.588759    -22.730571
PG25   9441.026618  17472.973908 -18137.974513    427.971679
PG26  25890.197372   2956.691360   5904.912910   -357.092129
PG27  13455.996033  -8967.048845  20627.381098   -119.621367
PG28  19695.000778   -119.907240 -17821.863260   -548.178526
PG29   3958.276397  25978.840732   3174.841242   -334.876211
PG30 -15994.569943  -6498.302242  20448.495944    197.562155
PG31  23299.082115  -7918.029801 -10664.697459   -153.626424
PG32  14662.604787  11822.081930 -18523.137887     16.984627
PR02  13889.784505  18652.358770 -10502.395815     12.217426
PR03  12144.587048   1544.147487 -22334.158743    143.064627
PR04   3371.563904 -14907.934443 -20384.924802    350.861863
PR05  -6810.822808 -23358.784941  -7619.902438    166.942352
PR06 -13973.959595 -19172.474897   9358.059286     25.479926
PR07 -12199.023898  -1637.204928  22380.569862    120.797438
PR08  -3099.906309  15275.992096  20268.503412     -4.373281
PR09 -21158.766152  -6989.235284  12521.770685    321.701649
PR11 -15880.055625   7626.957008 -18445.078144     15.972448
PR12   3879.751289  11151.372771 -22585.407572     68.124720
PR14  25147.816189   -461.255809   4183.897742     32.224216
PR15  15201.879958  -7972.472474  18883.758760     57.000329
PR16  -4083.173163 -11024.323990  22654.094170     48.118966
PR17  16530.994462 -10436.908187  16411.032417    289.577749
PR18  15486.863243 -20154.992731   1830.518655    258.003766
PR19   5569.280074 -19832.471415 -15090.744477     43.919699
PR20  -7935.112084  -7592.256731 -23006.581248    231.343194
PR21 -15742.738075   7269.369746 -18702.530623   -301.199499
PR22 -15131.819763  20541.492259   -109.738496    122.153486
PR24   8692.850363   6836.375925  22995.199071   -161.342377
PR26  -5119.160871  12412.882725  21706.439412    -27.300914
PE02  20611.911221  -3944.255922  20872.766540     34.777254
PE03  15393.800220 -13295.185829 -21514.975255    -12.919401
PE04  -5968.890706  28144.581759   6930.904313   -130.993636
PE05  15696.245554   9218.509375 -23331.735197     29.259096
PE06    543.216245  29481.318569  -2563.801090   -261.834093
PE07  -6767.183750 -26464.917482  11438.802956    -59.088182
PE08   6090.380592 -28100.521193  -7083.817486   -132.639693
PE09   6629.418470  26447.609606 -11486.320883   -249.818408
PE10  -3755.647551  18446.706324  22836.027244   -787.012071
PE11   7803.912844  14104.914819  24811.512886   4811.201726
PE12 -13290.663036  19642.872628  17719.100193    -41.659314
PE13  -7320.022647 -14274.578142 -24875.832915    -53.153179
PE14  -1941.562687  22917.048320  -4703.645475 999999.999999
PE15  13880.629529 -19566.848267 -17325.849906   -252.774392
PE16  17210.813710  20886.371259 -11960.444049    -27.443753
PE18  -2491.306420 -32528.206346     79.703865 999999.999999
PE19 -15607.721861  12204.379022  21998.422035   2903.649649
PE21 -26350.184717 -12152.315979  -5850.214442   -737.230206
PE23 -20593.561051   4029.422474 -20886.580541    -32.605934
PE25  26279.319725  12544.218980   5322.852212     21.982210
PE26 -23844.997001   -700.470582 -17528.269817    284.185257
PE27 -16274.517752 -21138.395121  12815.981243   -969.062172
PE28 -11891.128279  22868.721625  14556.780292    -37.730553
PE29 -15881.055751  -9100.371122  23265.189996   -199.525750
PE30   2564.321244 -17893.281158  23425.943962   -970.510408
PE31  -3247.865905  17516.708795 -23634.706778   -135.751260
PE32  11909.581481 -22839.222373 -14586.615855    -14.790409
PE33 -26538.257267  13107.913097   -479.353761    -11.909217
PE34  26460.998520 -13263.428020    296.942320   -249.686408
PE36  23666.986958    832.717544  17746.366884   -555.408904
EOF
